// Rendered on geojson.com, annotated at https://www.tldraw.com/f/CslCG88Wi9Km_bqz3BC7-?d=v-198.-357.1477.979.page
{"type":"FeatureCollection","features":[{"type":"Feature","geometry":{"type":"Polygon","coordinates":[[[-99.214044,19.412612],[-99.231417,19.399387],[-99.237888,19.395529],[-99.218443,19.397695],[-99.180321,19.417348],[-99.177846,19.423508],[-99.179989,19.428363],[-99.182692,19.429813],[-99.193182,19.42525],[-99.198223,19.42515],[-99.203,19.4253],[-99.204994,19.419057],[-99.214044,19.412612]]]},"properties":{"name":"Chapultepec","note":"Simplified guide-map Chapultepec region. The upper-left spur was removed, the south-central gap was filled, and the north-central edge was pulled south to leave clearance from the Polanco polygon.","stroke":"#3f7d3a","stroke-width":3,"stroke-opacity":1,"fill":"#77a66b","fill-opacity":0.22}},{"type":"Feature","geometry":{"type":"Polygon","coordinates":[[[-99.154283,19.418611],[-99.154247,19.419194],[-99.154229,19.41942],[-99.154198,19.4198],[-99.154079,19.421247],[-99.153954,19.422582],[-99.153843,19.423556],[-99.153809,19.423914],[-99.153792,19.424093],[-99.153775,19.424272],[-99.153736,19.424946],[-99.153716,19.425282],[-99.153697,19.425619],[-99.153682,19.425694],[-99.153668,19.42577],[-99.155272,19.425428],[-99.155327,19.425416],[-99.156257,19.425214],[-99.156426,19.425177],[-99.15735,19.424961],[-99.158111,19.424778],[-99.158826,19.424579],[-99.15997,19.424273],[-99.161183,19.424012],[-99.16218,19.42381],[-99.162339,19.42374],[-99.162339,19.423625],[-99.162355,19.423525],[-99.162401,19.423427],[-99.16244,19.423369],[-99.16249,19.423294],[-99.162551,19.423223],[-99.162621,19.423166],[-99.162695,19.423126],[-99.162817,19.423077],[-99.162952,19.423046],[-99.163004,19.423054],[-99.163029,19.423057],[-99.163042,19.423059],[-99.163055,19.423061],[-99.163211,19.423103],[-99.163265,19.42313],[-99.163319,19.42317],[-99.163373,19.423209],[-99.163444,19.423262],[-99.163504,19.42332],[-99.163515,19.423336],[-99.163527,19.423351],[-99.164092,19.423204],[-99.165567,19.422889],[-99.16705,19.422574],[-99.167219,19.422543],[-99.168799,19.422209],[-99.170063,19.421932],[-99.170249,19.421875],[-99.171459,19.421643],[-99.171581,19.421586],[-99.173084,19.421264],[-99.173995,19.421041],[-99.174548,19.420919],[-99.175424,19.420718],[-99.175563,19.420786],[-99.175662,19.420795],[-99.175711,19.4208],[-99.175761,19.420804],[-99.175968,19.420698],[-99.176363,19.420488],[-99.176421,19.420457],[-99.176563,19.420329],[-99.176562,19.420309],[-99.17656,19.420289],[-99.176557,19.42025],[-99.176539,19.42017],[-99.176518,19.420131],[-99.176498,19.420092],[-99.176171,19.419674],[-99.175541,19.418934],[-99.175009,19.418241],[-99.174834,19.41803],[-99.174717,19.417949],[-99.173645,19.417215],[-99.173212,19.416907],[-99.172487,19.416353],[-99.171898,19.415974],[-99.171826,19.415968],[-99.171751,19.415952],[-99.171685,19.415917],[-99.171638,19.415857],[-99.171531,19.415913],[-99.171144,19.416116],[-99.171004,19.416169],[-99.170863,19.416221],[-99.170557,19.41627],[-99.170432,19.41629],[-99.170339,19.416194],[-99.170013,19.415859],[-99.169938,19.415951],[-99.169775,19.416101],[-99.169613,19.416251],[-99.168958,19.416398],[-99.168649,19.416467],[-99.167694,19.416674],[-99.167456,19.416726],[-99.167414,19.416734],[-99.167237,19.416632],[-99.167061,19.41653],[-99.165721,19.415738],[-99.165478,19.415595],[-99.165341,19.415515],[-99.165353,19.415472],[-99.165365,19.415429],[-99.165374,19.415398],[-99.165407,19.415282],[-99.165583,19.414738],[-99.165904,19.413736],[-99.166204,19.412811],[-99.166275,19.412623],[-99.166363,19.412369],[-99.16649,19.411974],[-99.166617,19.411578],[-99.166973,19.410476],[-99.165993,19.410721],[-99.164377,19.41099],[-99.162519,19.411299],[-99.161231,19.411584],[-99.161033,19.411628],[-99.159652,19.411906],[-99.159643,19.412016],[-99.159635,19.412126],[-99.159421,19.411988],[-99.158762,19.411655],[-99.158584,19.411665],[-99.158069,19.411693],[-99.156851,19.411766],[-99.155619,19.411809],[-99.154933,19.411817],[-99.154867,19.41181],[-99.154834,19.411806],[-99.154801,19.411803],[-99.154748,19.412946],[-99.154649,19.413895],[-99.154643,19.413964],[-99.154616,19.414242],[-99.154528,19.415101],[-99.154501,19.415534],[-99.154475,19.415966],[-99.154443,19.416878],[-99.154354,19.417804],[-99.154287,19.418558],[-99.154283,19.418611]]]},"properties":{"name":"Roma Norte","label":"Roma Norte","canonical_name":"Roma Norte","boroughs":["Cuauhtémoc"],"components":["Roma Norte I","Roma Norte Ii","Roma Norte Iii"],"component_codes":["15-068","15-069","15-070"],"source_dataset":"georef-mexico-colonia","source_agency":"Instituto Electoral de la Ciudad de México (IECM), distributed via OpenDataSoft","source_year":2022,"grouping_note":"Composite neighborhood outline assembled by dissolving the listed component colonia polygons.","stroke":"#C94F5D","stroke-width":2,"stroke-opacity":1,"fill":"#C94F5D","fill-opacity":0.2},"bbox":[-99.176563,19.410476,-99.153668,19.42577]},{"type":"Feature","geometry":{"type":"Polygon","coordinates":[[[-99.168093,19.407042],[-99.167735,19.408195],[-99.167339,19.409358],[-99.166973,19.410476],[-99.166617,19.411578],[-99.16649,19.411974],[-99.166363,19.412369],[-99.166275,19.412623],[-99.166204,19.412811],[-99.165904,19.413736],[-99.165583,19.414738],[-99.165407,19.415282],[-99.165374,19.415398],[-99.165365,19.415429],[-99.165359,19.41545],[-99.165353,19.415472],[-99.165341,19.415515],[-99.165478,19.415595],[-99.165721,19.415738],[-99.167061,19.41653],[-99.167237,19.416632],[-99.167414,19.416734],[-99.167456,19.416726],[-99.167694,19.416674],[-99.168649,19.416467],[-99.168958,19.416398],[-99.169613,19.416251],[-99.169775,19.416101],[-99.169938,19.415951],[-99.170013,19.415859],[-99.170339,19.416194],[-99.170432,19.41629],[-99.170557,19.41627],[-99.170863,19.416221],[-99.171004,19.416169],[-99.171144,19.416116],[-99.171531,19.415913],[-99.171638,19.415857],[-99.171685,19.415917],[-99.171751,19.415952],[-99.171826,19.415968],[-99.171898,19.415974],[-99.172487,19.416353],[-99.173212,19.416907],[-99.173645,19.417215],[-99.174717,19.417949],[-99.174834,19.41803],[-99.175009,19.418241],[-99.175541,19.418934],[-99.176171,19.419674],[-99.176498,19.420092],[-99.176518,19.420131],[-99.176539,19.42017],[-99.176557,19.42025],[-99.17656,19.420289],[-99.176562,19.420309],[-99.176563,19.420329],[-99.176624,19.420274],[-99.176785,19.420253],[-99.177095,19.420192],[-99.177126,19.420121],[-99.177157,19.42005],[-99.177511,19.419238],[-99.178248,19.418019],[-99.178817,19.417009],[-99.178832,19.416985],[-99.178913,19.417014],[-99.179837,19.415678],[-99.179876,19.41561],[-99.181173,19.413328],[-99.182195,19.411528],[-99.182349,19.411388],[-99.182899,19.410467],[-99.183017,19.410249],[-99.183472,19.409408],[-99.184277,19.407919],[-99.184149,19.407875],[-99.182509,19.407311],[-99.18121,19.406864],[-99.180702,19.406688],[-99.178952,19.40608],[-99.177812,19.40568],[-99.177116,19.405441],[-99.174398,19.404549],[-99.173494,19.404258],[-99.172581,19.403964],[-99.17169,19.403678],[-99.171307,19.403554],[-99.171177,19.403512],[-99.171146,19.403372],[-99.170996,19.402695],[-99.170911,19.402314],[-99.170819,19.401933],[-99.170773,19.401756],[-99.170495,19.400449],[-99.170462,19.400291],[-99.170412,19.400056],[-99.170365,19.400183],[-99.170318,19.40031],[-99.170026,19.4011],[-99.169855,19.401621],[-99.169684,19.402144],[-99.169556,19.402549],[-99.16922,19.403604],[-99.169142,19.403856],[-99.168914,19.404588],[-99.168481,19.40593],[-99.168093,19.407042]],[[-99.172982,19.410249],[-99.172975,19.410266],[-99.172989,19.410232],[-99.172982,19.410249]]]},"properties":{"name":"Condesa","label":"Condesa","canonical_name":"La Condesa","boroughs":["Cuauhtémoc"],"components":["Condesa","Hipodromo Condesa","Hipodromo I","Hipodromo Ii"],"component_codes":["15-008","15-016","15-054","15-055"],"source_dataset":"georef-mexico-colonia","source_agency":"Instituto Electoral de la Ciudad de México (IECM), distributed via OpenDataSoft","source_year":2022,"grouping_note":"Composite neighborhood outline assembled by dissolving the listed component colonia polygons.","stroke":"#4F8F72","stroke-width":2,"stroke-opacity":1,"fill":"#4F8F72","fill-opacity":0.2},"bbox":[-99.184277,19.400056,-99.165341,19.420329]},{"type":"Feature","geometry":{"type":"Polygon","coordinates":[[[-99.159909,19.43075],[-99.160217,19.430595],[-99.160499,19.430465],[-99.161579,19.429968],[-99.16264,19.429402],[-99.163448,19.429109],[-99.163437,19.428863],[-99.16365,19.42867],[-99.163731,19.42867],[-99.163782,19.42868],[-99.163914,19.428718],[-99.164134,19.428619],[-99.164355,19.428519],[-99.165007,19.428223],[-99.165853,19.42784],[-99.166323,19.427609],[-99.166749,19.427418],[-99.167173,19.427236],[-99.167271,19.427204],[-99.167249,19.42707],[-99.167254,19.426925],[-99.167295,19.426816],[-99.167347,19.426721],[-99.167429,19.426649],[-99.167501,19.426624],[-99.167573,19.426598],[-99.167733,19.426599],[-99.167979,19.426658],[-99.16809,19.42677],[-99.16812,19.426752],[-99.16815,19.426734],[-99.168944,19.426377],[-99.169839,19.425974],[-99.170294,19.425769],[-99.17146,19.425244],[-99.171458,19.425229],[-99.171455,19.425215],[-99.17145,19.425186],[-99.171452,19.42516],[-99.171474,19.425059],[-99.171484,19.42504],[-99.171506,19.425016],[-99.171555,19.424962],[-99.171577,19.424945],[-99.171469,19.424667],[-99.171514,19.424652],[-99.17156,19.424636],[-99.171606,19.424621],[-99.171652,19.424605],[-99.171687,19.424608],[-99.171723,19.424611],[-99.171782,19.424602],[-99.171856,19.424586],[-99.17189,19.42457],[-99.171935,19.424552],[-99.17227,19.424387],[-99.172775,19.424163],[-99.174146,19.423521],[-99.174764,19.423244],[-99.174929,19.42317],[-99.174979,19.423193],[-99.175138,19.423188],[-99.175184,19.423213],[-99.175231,19.423238],[-99.175301,19.423358],[-99.175329,19.423406],[-99.175342,19.423429],[-99.175427,19.423574],[-99.175798,19.423534],[-99.175947,19.423499],[-99.176126,19.423498],[-99.176516,19.423455],[-99.177456,19.423684],[-99.177681,19.423058],[-99.177679,19.421205],[-99.177683,19.420731],[-99.177679,19.420511],[-99.17769,19.420295],[-99.177719,19.419957],[-99.177733,19.41973],[-99.177758,19.419455],[-99.177813,19.419089],[-99.177861,19.418946],[-99.178913,19.417014],[-99.178832,19.416985],[-99.178248,19.418019],[-99.177511,19.419238],[-99.177157,19.42005],[-99.177126,19.420121],[-99.177095,19.420192],[-99.176785,19.420253],[-99.176624,19.420274],[-99.176563,19.420329],[-99.176421,19.420457],[-99.176363,19.420488],[-99.175968,19.420698],[-99.175761,19.420804],[-99.175711,19.4208],[-99.175662,19.420795],[-99.175563,19.420786],[-99.175424,19.420718],[-99.174548,19.420919],[-99.173995,19.421041],[-99.173084,19.421264],[-99.171581,19.421586],[-99.171459,19.421643],[-99.170249,19.421875],[-99.170063,19.421932],[-99.168799,19.422209],[-99.167219,19.422543],[-99.16705,19.422574],[-99.165567,19.422889],[-99.164092,19.423204],[-99.163527,19.423351],[-99.163515,19.423336],[-99.163504,19.42332],[-99.163444,19.423262],[-99.163373,19.423209],[-99.163319,19.42317],[-99.163265,19.42313],[-99.163211,19.423103],[-99.163055,19.423061],[-99.163042,19.423059],[-99.163029,19.423057],[-99.163004,19.423054],[-99.162952,19.423046],[-99.162817,19.423077],[-99.162695,19.423126],[-99.162621,19.423166],[-99.162551,19.423223],[-99.16249,19.423294],[-99.16244,19.423369],[-99.162401,19.423427],[-99.162355,19.423525],[-99.162339,19.423625],[-99.162339,19.42374],[-99.16218,19.42381],[-99.161183,19.424012],[-99.15997,19.424273],[-99.158826,19.424579],[-99.158111,19.424778],[-99.15735,19.424961],[-99.156426,19.425177],[-99.156257,19.425214],[-99.155327,19.425416],[-99.155272,19.425428],[-99.153668,19.42577],[-99.153658,19.425867],[-99.153648,19.425964],[-99.15361,19.426126],[-99.153472,19.426492],[-99.15336,19.426762],[-99.15323,19.427061],[-99.153033,19.427556],[-99.152562,19.428666],[-99.15213,19.429684],[-99.151734,19.430645],[-99.151729,19.430771],[-99.151726,19.430888],[-99.151735,19.431006],[-99.151708,19.431087],[-99.151644,19.431146],[-99.151582,19.431178],[-99.151521,19.431209],[-99.151459,19.431285],[-99.15128,19.431743],[-99.150916,19.432641],[-99.150627,19.433351],[-99.150065,19.434684],[-99.149869,19.435148],[-99.149839,19.435293],[-99.149918,19.435266],[-99.150094,19.435183],[-99.150182,19.435142],[-99.15027,19.4351],[-99.151758,19.4344],[-99.153175,19.433733],[-99.153456,19.433601],[-99.153819,19.433432],[-99.154182,19.433262],[-99.154173,19.433229],[-99.154165,19.433195],[-99.154145,19.433117],[-99.154197,19.432975],[-99.154242,19.43284],[-99.15431,19.432769],[-99.154467,19.43262],[-99.154616,19.432599],[-99.154968,19.432634],[-99.155238,19.432825],[-99.156787,19.432128],[-99.157576,19.431772],[-99.158263,19.431463],[-99.158431,19.43139],[-99.159542,19.430904],[-99.159658,19.430852],[-99.159754,19.430813],[-99.159796,19.430796],[-99.159909,19.43075]]]},"properties":{"name":"Juárez","label":"Juárez","canonical_name":"Juárez","boroughs":["Cuauhtémoc"],"components":["Juarez"],"component_codes":["15-017"],"source_dataset":"georef-mexico-colonia","source_agency":"Instituto Electoral de la Ciudad de México (IECM), distributed via OpenDataSoft","source_year":2022,"grouping_note":"Composite neighborhood outline assembled by dissolving the listed component colonia polygons.","stroke":"#7B5AA6","stroke-width":2,"stroke-opacity":1,"fill":"#7B5AA6","fill-opacity":0.2},"bbox":[-99.178913,19.416985,-99.149839,19.435293]},{"type":"Feature","geometry":{"type":"Polygon","coordinates":[[[-99.175597,19.426878],[-99.175636,19.426817],[-99.176368,19.425681],[-99.176736,19.425111],[-99.177031,19.424601],[-99.177588,19.423716],[-99.177555,19.423708],[-99.177522,19.4237],[-99.177456,19.423684],[-99.176516,19.423455],[-99.176126,19.423498],[-99.175947,19.423499],[-99.175798,19.423534],[-99.175427,19.423574],[-99.175342,19.423429],[-99.175329,19.423406],[-99.175301,19.423358],[-99.175231,19.423238],[-99.175184,19.423213],[-99.175138,19.423188],[-99.174979,19.423193],[-99.174929,19.42317],[-99.174764,19.423244],[-99.174146,19.423521],[-99.172775,19.424163],[-99.17227,19.424387],[-99.171935,19.424552],[-99.17189,19.42457],[-99.171856,19.424586],[-99.171782,19.424602],[-99.171723,19.424611],[-99.171687,19.424608],[-99.171652,19.424605],[-99.171606,19.424621],[-99.17156,19.424636],[-99.171514,19.424652],[-99.171469,19.424667],[-99.171577,19.424945],[-99.171555,19.424962],[-99.171506,19.425016],[-99.171484,19.42504],[-99.171474,19.425059],[-99.171452,19.42516],[-99.17145,19.425186],[-99.171455,19.425215],[-99.171458,19.425229],[-99.17146,19.425244],[-99.170294,19.425769],[-99.169839,19.425974],[-99.168944,19.426377],[-99.16815,19.426734],[-99.16812,19.426752],[-99.16809,19.42677],[-99.167979,19.426658],[-99.167733,19.426599],[-99.167573,19.426598],[-99.167501,19.426624],[-99.167429,19.426649],[-99.167347,19.426721],[-99.167295,19.426816],[-99.167254,19.426925],[-99.167249,19.42707],[-99.167271,19.427204],[-99.167173,19.427236],[-99.166749,19.427418],[-99.166323,19.427609],[-99.165853,19.42784],[-99.165007,19.428223],[-99.164355,19.428519],[-99.164134,19.428619],[-99.163914,19.428718],[-99.163782,19.42868],[-99.163731,19.42867],[-99.16365,19.42867],[-99.163437,19.428863],[-99.163448,19.429109],[-99.16264,19.429402],[-99.161579,19.429968],[-99.160499,19.430465],[-99.160217,19.430595],[-99.159909,19.43075],[-99.159784,19.430938],[-99.159711,19.431079],[-99.159638,19.431219],[-99.159358,19.431774],[-99.16315,19.432812],[-99.175597,19.426878]]]},"properties":{"name":"Reforma","label":"Reforma","canonical_name":"Reforma / Colonia Cuauhtémoc","boroughs":["Cuauhtémoc"],"components":["Cuauhtemoc"],"component_codes":["15-009"],"source_dataset":"georef-mexico-colonia","source_agency":"Instituto Electoral de la Ciudad de México (IECM), distributed via OpenDataSoft","source_year":2022,"grouping_note":"Hand-wavy Reforma outline represented by the Colonia Cuauhtémoc source polygon, immediately north of Juárez along Paseo de la Reforma.","stroke":"#2F6F8F","stroke-width":2,"stroke-opacity":1,"fill":"#2F6F8F","fill-opacity":0.2},"bbox":[-99.177588,19.42317,-99.159054,19.43622]},{"type":"Feature","geometry":{"type":"Polygon","coordinates":[[[-99.12564,19.425575],[-99.125633,19.425637],[-99.125631,19.425652],[-99.125629,19.425667],[-99.125598,19.425881],[-99.125512,19.426492],[-99.125504,19.426556],[-99.125468,19.426811],[-99.125345,19.427683],[-99.125237,19.428349],[-99.125177,19.428756],[-99.125111,19.429199],[-99.124995,19.429831],[-99.124846,19.430841],[-99.124786,19.431231],[-99.124774,19.431312],[-99.124673,19.431972],[-99.124538,19.432817],[-99.124367,19.433954],[-99.124219,19.434731],[-99.124083,19.435591],[-99.123951,19.43643],[-99.123786,19.43749],[-99.123613,19.43864],[-99.12341,19.439599],[-99.123335,19.4402],[-99.123255,19.44086],[-99.123167,19.441575],[-99.123022,19.442635],[-99.123222,19.442671],[-99.123573,19.442739],[-99.123795,19.442758],[-99.124004,19.442778],[-99.124404,19.442815],[-99.124733,19.442835],[-99.1257,19.442918],[-99.127379,19.443071],[-99.128752,19.443133],[-99.129649,19.443173],[-99.130793,19.443225],[-99.131569,19.443299],[-99.132149,19.443354],[-99.132728,19.443409],[-99.133246,19.44346],[-99.13396,19.443529],[-99.135208,19.44365],[-99.136965,19.443806],[-99.137863,19.443885],[-99.13876,19.443965],[-99.138765,19.443942],[-99.138769,19.443919],[-99.138779,19.443874],[-99.138946,19.443615],[-99.139113,19.443356],[-99.139447,19.442837],[-99.13971,19.4412],[-99.139751,19.440945],[-99.139799,19.440952],[-99.139847,19.440958],[-99.139844,19.440829],[-99.139856,19.440739],[-99.139888,19.440485],[-99.139984,19.439905],[-99.140001,19.43977],[-99.140016,19.43969],[-99.140047,19.439504],[-99.140184,19.438666],[-99.140314,19.437791],[-99.140459,19.43693],[-99.140564,19.436261],[-99.142181,19.436542],[-99.142639,19.436614],[-99.142849,19.436654],[-99.142938,19.43667],[-99.14393,19.436859],[-99.144042,19.436887],[-99.145882,19.437337],[-99.146404,19.437368],[-99.146437,19.437334],[-99.146469,19.437301],[-99.147017,19.436955],[-99.147897,19.4364],[-99.148329,19.436112],[-99.149118,19.435566],[-99.149328,19.435421],[-99.149623,19.435251],[-99.149839,19.435293],[-99.149869,19.435148],[-99.150065,19.434684],[-99.150627,19.433351],[-99.150916,19.432641],[-99.15128,19.431743],[-99.151459,19.431285],[-99.151521,19.431209],[-99.151582,19.431178],[-99.151644,19.431146],[-99.151708,19.431087],[-99.151735,19.431006],[-99.151726,19.430888],[-99.151729,19.430771],[-99.151734,19.430645],[-99.15213,19.429684],[-99.152562,19.428666],[-99.153033,19.427556],[-99.15323,19.427061],[-99.15336,19.426762],[-99.153472,19.426492],[-99.15361,19.426126],[-99.153648,19.425964],[-99.153658,19.425867],[-99.153668,19.42577],[-99.153564,19.425836],[-99.153444,19.425879],[-99.153324,19.425922],[-99.142586,19.42454],[-99.13335,19.423616],[-99.133341,19.423654],[-99.133332,19.423693],[-99.13287,19.423712],[-99.132737,19.423718],[-99.132712,19.423718],[-99.132603,19.42372],[-99.132387,19.423697],[-99.132278,19.423685],[-99.13217,19.423674],[-99.132155,19.423671],[-99.131828,19.423617],[-99.131093,19.423494],[-99.131013,19.42348],[-99.130279,19.423379],[-99.129289,19.423243],[-99.129254,19.423259],[-99.129219,19.423276],[-99.129128,19.423262],[-99.128398,19.423155],[-99.128208,19.423128],[-99.126091,19.422817],[-99.126057,19.422882],[-99.126021,19.422947],[-99.125961,19.42306],[-99.1259,19.423491],[-99.125857,19.4238],[-99.125788,19.424366],[-99.125666,19.425366],[-99.125659,19.425423],[-99.125646,19.42553],[-99.12564,19.425575]]]},"properties":{"name":"Centro Histórico","label":"Centro Histórico","canonical_name":"Centro Histórico","boroughs":["Cuauhtémoc"],"components":["Centro I","Centro Ii","Centro Iii","Centro Iv","Centro V","Centro Vi","Centro Vii","Centro Viii"],"component_codes":["15-037","15-038","15-039","15-040","15-041","15-042","15-043","15-044"],"source_dataset":"georef-mexico-colonia","source_agency":"Instituto Electoral de la Ciudad de México (IECM), distributed via OpenDataSoft","source_year":2022,"grouping_note":"Composite neighborhood outline assembled by dissolving the listed component colonia polygons.","stroke":"#3568A8","stroke-width":2,"stroke-opacity":1,"fill":"#3568A8","fill-opacity":0.2},"bbox":[-99.153668,19.422227,-99.123022,19.443965]},{"type":"Feature","geometry":{"type":"Polygon","coordinates":[[[-99.153308,19.445949],[-99.153245,19.446353],[-99.153245,19.446353],[-99.152969,19.447802],[-99.152916,19.44808],[-99.15259,19.449891],[-99.152422,19.450766],[-99.15224,19.451711],[-99.151988,19.453071],[-99.151927,19.453398],[-99.151811,19.454026],[-99.151856,19.454032],[-99.152475,19.454119],[-99.15303,19.454196],[-99.15414,19.45435],[-99.155265,19.454515],[-99.155907,19.454613],[-99.156628,19.454715],[-99.157749,19.454885],[-99.158838,19.455056],[-99.159397,19.455144],[-99.159956,19.455205],[-99.161035,19.45536],[-99.162045,19.455516],[-99.162928,19.455652],[-99.163338,19.455715],[-99.163589,19.455754],[-99.16368,19.455768],[-99.163696,19.455771],[-99.163711,19.455773],[-99.163742,19.455778],[-99.163859,19.455081],[-99.163899,19.454823],[-99.16398,19.454244],[-99.164057,19.453683],[-99.16408,19.453517],[-99.164139,19.452947],[-99.164171,19.452649],[-99.164195,19.452425],[-99.164208,19.452292],[-99.164254,19.45182],[-99.164233,19.450087],[-99.164235,19.450061],[-99.164237,19.450035],[-99.164241,19.449982],[-99.164421,19.449173],[-99.164643,19.448259],[-99.164865,19.447344],[-99.165024,19.446689],[-99.165318,19.445169],[-99.165601,19.443693],[-99.165596,19.44361],[-99.165591,19.443527],[-99.165585,19.443425],[-99.165532,19.443393],[-99.165112,19.443136],[-99.164954,19.443039],[-99.164781,19.442999],[-99.163714,19.442753],[-99.162633,19.442514],[-99.162591,19.442503],[-99.16255,19.442492],[-99.16154,19.442117],[-99.160531,19.441742],[-99.159598,19.441352],[-99.158921,19.441067],[-99.158648,19.440953],[-99.158518,19.440898],[-99.157817,19.440604],[-99.15779,19.440592],[-99.156725,19.44012],[-99.15583,19.439724],[-99.155648,19.439777],[-99.15475,19.441915],[-99.154553,19.442719],[-99.154372,19.443498],[-99.153308,19.445949]]]},"properties":{"name":"Santa María la Ribera","label":"Santa María la Ribera","canonical_name":"Santa María la Ribera","boroughs":["Cuauhtémoc"],"components":["Santa Maria La Ribera I","Santa Maria La Ribera Ii","Santa Maria La Ribera Iv"],"component_codes":["15-075","15-076","15-078"],"source_dataset":"georef-mexico-colonia","source_agency":"Instituto Electoral de la Ciudad de México (IECM), distributed via OpenDataSoft","source_year":2022,"grouping_note":"Composite neighborhood outline assembled by dissolving the listed component colonia polygons.","stroke":"#2F7F83","stroke-width":2,"stroke-opacity":1,"fill":"#2F7F83","fill-opacity":0.2},"bbox":[-99.165601,19.439724,-99.151811,19.455778]},{"type":"Feature","geometry":{"type":"Polygon","coordinates":[[[-99.129649,19.443173],[-99.128752,19.443133],[-99.127379,19.443071],[-99.1257,19.442918],[-99.124733,19.442835],[-99.124541,19.442823],[-99.124404,19.442815],[-99.124004,19.442778],[-99.123795,19.442758],[-99.123573,19.442739],[-99.123222,19.442671],[-99.123022,19.442635],[-99.123661,19.443553],[-99.123699,19.443609],[-99.123724,19.443648],[-99.1242,19.444393],[-99.124364,19.444754],[-99.124439,19.444921],[-99.124452,19.44496],[-99.124566,19.445318],[-99.125371,19.446643],[-99.125563,19.446939],[-99.125673,19.447109],[-99.125938,19.447676],[-99.125869,19.448226],[-99.125862,19.448282],[-99.12567,19.449247],[-99.125552,19.449845],[-99.125455,19.450199],[-99.125217,19.451069],[-99.125054,19.451454],[-99.125026,19.451523],[-99.124874,19.451853],[-99.12478,19.452002],[-99.125826,19.452226],[-99.126136,19.452292],[-99.126604,19.452392],[-99.127848,19.452658],[-99.127919,19.452672],[-99.12799,19.452687],[-99.12829,19.452746],[-99.128707,19.452829],[-99.129071,19.4529],[-99.12924,19.452933],[-99.129535,19.452975],[-99.129602,19.452983],[-99.130389,19.453073],[-99.130539,19.45309],[-99.130689,19.453108],[-99.131074,19.452689],[-99.131162,19.452593],[-99.132678,19.45067],[-99.134115,19.44881],[-99.134047,19.448749],[-99.134144,19.448634],[-99.134174,19.448661],[-99.134205,19.448688],[-99.134233,19.448713],[-99.134338,19.448778],[-99.134438,19.448801],[-99.134514,19.448825],[-99.134592,19.448852],[-99.13469,19.448871],[-99.134778,19.448877],[-99.134849,19.448861],[-99.134931,19.448827],[-99.135006,19.44879],[-99.135081,19.448744],[-99.13513,19.448707],[-99.135185,19.448654],[-99.135237,19.448601],[-99.13527,19.448543],[-99.135309,19.448471],[-99.135334,19.448409],[-99.135342,19.44839],[-99.13535,19.448372],[-99.135357,19.448334],[-99.13536,19.448291],[-99.135354,19.448242],[-99.135354,19.448196],[-99.135347,19.448152],[-99.135334,19.448106],[-99.135318,19.44805],[-99.135305,19.44801],[-99.135285,19.447976],[-99.135276,19.447953],[-99.135261,19.4479],[-99.135242,19.447854],[-99.13521,19.447813],[-99.135186,19.447788],[-99.135159,19.447762],[-99.135139,19.447744],[-99.135126,19.447736],[-99.135113,19.447728],[-99.135399,19.447512],[-99.138052,19.445121],[-99.138088,19.445043],[-99.138109,19.444977],[-99.138145,19.444919],[-99.138197,19.444839],[-99.138216,19.444801],[-99.138235,19.444763],[-99.13829,19.444714],[-99.138336,19.44463],[-99.138374,19.444569],[-99.138411,19.444508],[-99.13876,19.443965],[-99.137863,19.443885],[-99.136965,19.443806],[-99.135208,19.44365],[-99.13396,19.443529],[-99.133246,19.44346],[-99.132728,19.443409],[-99.132149,19.443354],[-99.131569,19.443299],[-99.130793,19.443225],[-99.129649,19.443173]]]},"properties":{"name":"Tepito","label":"Tepito","canonical_name":"Tepito / Colonia Morelos","boroughs":["Cuauhtémoc"],"components":["Morelos I","Morelos Ii","Morelos Iii"],"component_codes":["15-056","15-057","15-058"],"source_dataset":"georef-mexico-colonia","source_agency":"Instituto Electoral de la Ciudad de México (IECM), distributed via OpenDataSoft","source_year":2022,"grouping_note":"Composite neighborhood outline assembled by dissolving the listed component colonia polygons.","stroke":"#f00","stroke-width":2,"stroke-opacity":1,"fill":"#f00","fill-opacity":0.2},"bbox":[-99.13876,19.442635,-99.123022,19.453108]},{"type":"Feature","geometry":{"type":"Polygon","coordinates":[[[-99.155669,19.343703],[-99.155367,19.34397],[-99.154776,19.344079],[-99.154337,19.344193],[-99.153206,19.344495],[-99.151761,19.34488],[-99.15103,19.345157],[-99.151119,19.345673],[-99.151131,19.346237],[-99.151131,19.346444],[-99.151008,19.347281],[-99.150682,19.348855],[-99.150578,19.348877],[-99.150513,19.34889],[-99.151766,19.353328],[-99.151936,19.353879],[-99.151977,19.354012],[-99.152272,19.355061],[-99.152441,19.355677],[-99.152937,19.357479],[-99.152978,19.35763],[-99.152994,19.357699],[-99.153208,19.357709],[-99.156697,19.3579],[-99.157142,19.357925],[-99.161859,19.358195],[-99.16347,19.358279],[-99.167273,19.358486],[-99.167571,19.358505],[-99.168473,19.35856],[-99.168815,19.358576],[-99.169304,19.358599],[-99.169641,19.358618],[-99.170085,19.358693],[-99.170296,19.358756],[-99.170465,19.35883],[-99.170579,19.358887],[-99.171031,19.359127],[-99.171663,19.359525],[-99.171803,19.359601],[-99.171854,19.359449],[-99.172451,19.357934],[-99.172764,19.357194],[-99.173019,19.35678],[-99.173585,19.356148],[-99.174217,19.355477],[-99.174983,19.354644],[-99.175256,19.354258],[-99.175481,19.353983],[-99.175585,19.353873],[-99.176065,19.353432],[-99.177105,19.352595],[-99.177171,19.352478],[-99.177237,19.352361],[-99.177303,19.352245],[-99.177416,19.352069],[-99.177481,19.351967],[-99.177528,19.351892],[-99.177601,19.351778],[-99.177723,19.351676],[-99.17832,19.351157],[-99.179609,19.350079],[-99.179834,19.349872],[-99.17998,19.349688],[-99.180015,19.34965],[-99.180112,19.349508],[-99.180135,19.349448],[-99.180142,19.34934],[-99.180145,19.349295],[-99.180613,19.34723],[-99.180731,19.347213],[-99.180831,19.347144],[-99.180872,19.347],[-99.180869,19.346901],[-99.180819,19.346815],[-99.180734,19.34675],[-99.18065,19.34673],[-99.18062,19.346724],[-99.18049,19.346767],[-99.180412,19.346829],[-99.179671,19.3466],[-99.178814,19.346352],[-99.17873,19.346338],[-99.177834,19.346191],[-99.177812,19.346187],[-99.176792,19.346065],[-99.17664,19.346047],[-99.174438,19.345802],[-99.174327,19.34579],[-99.173947,19.345747],[-99.17386,19.345738],[-99.172507,19.345572],[-99.171183,19.34541],[-99.171057,19.345394],[-99.170515,19.345328],[-99.170201,19.345289],[-99.169974,19.345261],[-99.16945,19.345197],[-99.168918,19.345132],[-99.168419,19.345071],[-99.167887,19.345005],[-99.167804,19.344995],[-99.167794,19.345083],[-99.167784,19.345176],[-99.166389,19.345005],[-99.166006,19.344949],[-99.165072,19.344841],[-99.164582,19.344784],[-99.164064,19.344724],[-99.163556,19.344665],[-99.161931,19.344481],[-99.161531,19.344435],[-99.16141,19.344421],[-99.160734,19.344344],[-99.159207,19.344157],[-99.158957,19.344127],[-99.157729,19.343975],[-99.156673,19.343845],[-99.156344,19.343798],[-99.155669,19.343703]]]},"properties":{"name":"Coyoacán","label":"Coyoacán","canonical_name":"Centro de Coyoacán","boroughs":["Coyoacán"],"components":["Del Carmen","La Concepcion (Barr)","San Lucas (Barr)","San Mateo (Barr)","Santa Catarina (Barr)","Villa Coyoacan"],"component_codes":["03-037","03-065","03-103","03-104","03-106","03-114"],"source_dataset":"georef-mexico-colonia","source_agency":"Instituto Electoral de la Ciudad de México (IECM), distributed via OpenDataSoft","source_year":2022,"grouping_note":"Composite neighborhood outline assembled by dissolving the listed component colonia polygons.","stroke":"#3568A8","stroke-width":2,"stroke-opacity":1,"fill":"#3568A8","fill-opacity":0.2},"bbox":[-99.180872,19.343703,-99.144933,19.359601]},{"type":"Feature","geometry":{"type":"Polygon","coordinates":[[[-99.191258,19.431296],[-99.191249,19.431367],[-99.191179,19.431364],[-99.191058,19.431417],[-99.191017,19.431452],[-99.190894,19.431633],[-99.190895,19.431635],[-99.190891,19.431638],[-99.190797,19.431635],[-99.189751,19.431599],[-99.18814,19.431544],[-99.187336,19.431514],[-99.186428,19.431492],[-99.185651,19.431473],[-99.184896,19.431454],[-99.184183,19.431437],[-99.183448,19.431419],[-99.182625,19.431395],[-99.181622,19.431377],[-99.181529,19.431376],[-99.181473,19.431376],[-99.181138,19.431398],[-99.181779,19.432882],[-99.181869,19.433088],[-99.182714,19.435194],[-99.182794,19.435392],[-99.183487,19.437118],[-99.183758,19.437085],[-99.183998,19.437326],[-99.18419,19.437486],[-99.185507,19.437538],[-99.186229,19.43757],[-99.18719,19.437613],[-99.187989,19.437649],[-99.188736,19.437682],[-99.189589,19.437721],[-99.190477,19.43776],[-99.191285,19.437796],[-99.192146,19.437835],[-99.192976,19.437875],[-99.193751,19.437913],[-99.194714,19.43796],[-99.195468,19.437993],[-99.196398,19.438033],[-99.19728,19.438072],[-99.198043,19.438105],[-99.198798,19.438139],[-99.199567,19.438172],[-99.200285,19.438204],[-99.200992,19.438237],[-99.206104,19.43845],[-99.207945,19.438524],[-99.208619,19.438563],[-99.209329,19.438597],[-99.209952,19.438622],[-99.210864,19.438672],[-99.211687,19.438713],[-99.212424,19.438748],[-99.212576,19.438754],[-99.213971,19.438824],[-99.213138,19.436939],[-99.213078,19.436803],[-99.212418,19.435787],[-99.212251,19.435556],[-99.212135,19.435358],[-99.211347,19.434633],[-99.210809,19.43417],[-99.210334,19.433777],[-99.209846,19.433388],[-99.209857,19.433333],[-99.209861,19.433315],[-99.209871,19.433265],[-99.209892,19.433163],[-99.209742,19.432894],[-99.209399,19.432163],[-99.20915,19.431653],[-99.208936,19.431411],[-99.208864,19.431397],[-99.20884,19.431392],[-99.208802,19.431385],[-99.208783,19.431381],[-99.208728,19.43137],[-99.208704,19.431365],[-99.208583,19.431341],[-99.208285,19.431292],[-99.207728,19.431282],[-99.2074,19.431153],[-99.206505,19.430492],[-99.205418,19.429644],[-99.204251,19.428754],[-99.204143,19.428655],[-99.203468,19.428031],[-99.203305,19.42791],[-99.203259,19.427876],[-99.2032,19.42791],[-99.203179,19.427922],[-99.203151,19.427938],[-99.202698,19.427946],[-99.202496,19.427933],[-99.202335,19.427884],[-99.202128,19.42781],[-99.201997,19.427737],[-99.201866,19.427665],[-99.201584,19.427474],[-99.201282,19.427305],[-99.201172,19.427287],[-99.200405,19.427167],[-99.198367,19.426847],[-99.197577,19.426723],[-99.197164,19.426658],[-99.191909,19.425833],[-99.191859,19.425825],[-99.191864,19.426045],[-99.191823,19.426177],[-99.191797,19.426298],[-99.191787,19.426391],[-99.191794,19.426563],[-99.191807,19.426736],[-99.191814,19.426925],[-99.191808,19.427078],[-99.191715,19.427787],[-99.191636,19.428432],[-99.191607,19.428618],[-99.191539,19.42914],[-99.191361,19.43051],[-99.191258,19.431296]]]},"properties":{"name":"Polanco","label":"Polanco","canonical_name":"Polanco","boroughs":["Miguel Hidalgo"],"components":["Los Morales (Polanco)","Del Bosque (Polanco)","Morales Seccion Palmas (Polanco)","Morales Seccion Alameda (Polanco)","Chapultepec Morales (Polanco)","Polanco Reforma (Polanco)","Palmitas (Polanco)","Chapultepec Polanco (Polanco)"],"component_codes":["16-047","16-026","16-055","16-054","16-021","16-065","16-059","16-022"],"source_dataset":"georef-mexico-colonia","source_agency":"Instituto Electoral de la Ciudad de México (IECM), distributed via OpenDataSoft","source_year":2022,"grouping_note":"Composite neighborhood outline assembled by dissolving the listed component colonia polygons. Bosques De Chapultepec (Polanco), code 16-018, is intentionally excluded to avoid the large southern extension into Chapultepec and better match the commonly understood Polanco outline.","stroke":"#394B59","stroke-width":2,"stroke-opacity":1,"fill":"#394B59","fill-opacity":0.2,"boundary_adjustment":"Excluded IECM unit 16-018 Bosques De Chapultepec (Polanco)."},"bbox":[-99.213971,19.425825,-99.181138,19.438824]},{"type":"Feature","geometry":{"type":"Polygon","coordinates":[[[-99.155191,19.406584],[-99.155123,19.407515],[-99.154801,19.411803],[-99.154834,19.411806],[-99.154867,19.41181],[-99.154933,19.411817],[-99.155619,19.411809],[-99.156851,19.411766],[-99.158069,19.411693],[-99.158584,19.411665],[-99.158762,19.411655],[-99.159421,19.411988],[-99.159635,19.412126],[-99.159643,19.412016],[-99.159652,19.411906],[-99.161033,19.411628],[-99.161231,19.411584],[-99.162519,19.411299],[-99.164377,19.41099],[-99.165993,19.410721],[-99.166973,19.410476],[-99.167339,19.409358],[-99.167735,19.408195],[-99.168093,19.407042],[-99.168481,19.40593],[-99.168914,19.404588],[-99.16922,19.403604],[-99.169556,19.402549],[-99.169684,19.402144],[-99.169855,19.401621],[-99.170026,19.4011],[-99.170318,19.40031],[-99.170365,19.400183],[-99.170412,19.400056],[-99.170349,19.399825],[-99.17028,19.399841],[-99.170231,19.399853],[-99.170172,19.399867],[-99.167911,19.400398],[-99.165284,19.401315],[-99.163035,19.40214],[-99.162761,19.402236],[-99.162278,19.402405],[-99.162213,19.402426],[-99.162191,19.402433],[-99.162169,19.40244],[-99.161295,19.402717],[-99.1605,19.402954],[-99.160478,19.40296],[-99.160451,19.402969],[-99.160287,19.403017],[-99.160254,19.403027],[-99.160223,19.403037],[-99.160203,19.403043],[-99.160179,19.403049],[-99.159702,19.403192],[-99.159137,19.403354],[-99.157683,19.403786],[-99.157147,19.403945],[-99.156679,19.404027],[-99.156458,19.40404],[-99.156236,19.404053],[-99.155586,19.404055],[-99.155548,19.404055],[-99.155528,19.404056],[-99.155508,19.404056],[-99.155393,19.404056],[-99.155386,19.404095],[-99.15538,19.404134],[-99.155372,19.404236],[-99.155288,19.405337],[-99.155229,19.405869],[-99.155197,19.40646],[-99.155194,19.406522],[-99.155193,19.406553],[-99.155191,19.406584]]]},"properties":{"name":"Roma Sur","label":"Roma Sur","canonical_name":"Roma Sur","boroughs":["Cuauhtémoc"],"components":["Roma Sur I","Roma Sur Ii"],"component_codes":["15-071","15-072"],"source_dataset":"georef-mexico-colonia","source_agency":"Instituto Electoral de la Ciudad de México (IECM), distributed via OpenDataSoft","source_year":2022,"grouping_note":"Composite neighborhood outline assembled by dissolving the listed component colonia polygons.","stroke":"#ffb703","stroke-width":2,"stroke-opacity":1,"fill":"#ffb703","fill-opacity":0.2},"bbox":[-99.170412,19.399825,-99.154801,19.412126]},{"type":"Feature","geometry":{"type":"Polygon","coordinates":[[[-99.173565,19.390128],[-99.17351,19.390266],[-99.173396,19.39059],[-99.173185,19.391158],[-99.173044,19.391572],[-99.172922,19.391954],[-99.172683,19.392708],[-99.172264,19.394012],[-99.171608,19.396091],[-99.171255,19.397231],[-99.170866,19.398383],[-99.170498,19.399786],[-99.170535,19.399775],[-99.170577,19.399763],[-99.170612,19.399752],[-99.170697,19.399722],[-99.170723,19.399713],[-99.171644,19.399389],[-99.172161,19.399219],[-99.172872,19.399013],[-99.175149,19.398324],[-99.175336,19.398249],[-99.175436,19.398224],[-99.175536,19.398227],[-99.175641,19.398243],[-99.175843,19.398321],[-99.176041,19.398394],[-99.176195,19.398463],[-99.176403,19.398553],[-99.176359,19.398481],[-99.176343,19.398423],[-99.176351,19.398329],[-99.176384,19.398238],[-99.176471,19.398157],[-99.176581,19.398126],[-99.177666,19.397921],[-99.177752,19.397904],[-99.177761,19.397721],[-99.177711,19.397344],[-99.178467,19.397166],[-99.179162,19.397019],[-99.179361,19.396902],[-99.179612,19.396628],[-99.179754,19.396359],[-99.179944,19.395921],[-99.180326,19.395055],[-99.180332,19.394855],[-99.180358,19.3948],[-99.180368,19.39478],[-99.180392,19.394728],[-99.180466,19.394672],[-99.180556,19.394462],[-99.180835,19.393728],[-99.180787,19.394182],[-99.180849,19.394205],[-99.180922,19.393979],[-99.181061,19.393399],[-99.181149,19.392981],[-99.181219,19.392635],[-99.181252,19.392304],[-99.181237,19.39144],[-99.181214,19.390084],[-99.181211,19.389523],[-99.181226,19.389243],[-99.181254,19.389024],[-99.1813,19.388756],[-99.181598,19.387255],[-99.181668,19.386959],[-99.181739,19.386734],[-99.181809,19.386564],[-99.181929,19.386335],[-99.18211,19.385988],[-99.182209,19.385839],[-99.182339,19.38568],[-99.182527,19.385489],[-99.182778,19.385347],[-99.183072,19.385228],[-99.182642,19.385223],[-99.182462,19.385218],[-99.181939,19.385219],[-99.181752,19.385217],[-99.180836,19.385218],[-99.180622,19.385237],[-99.18021,19.385299],[-99.179944,19.385345],[-99.179159,19.385474],[-99.178664,19.385557],[-99.178389,19.385603],[-99.177874,19.385689],[-99.177682,19.385721],[-99.177336,19.385769],[-99.176734,19.385854],[-99.175996,19.385957],[-99.175063,19.386088],[-99.174847,19.386119],[-99.174192,19.388207],[-99.17413,19.388407],[-99.17394,19.388898],[-99.17382,19.389301],[-99.173711,19.389655],[-99.173565,19.390128]]]},"properties":{"name":"Napoles","label":"Napoles","canonical_name":"Nápoles","boroughs":["Benito Juárez"],"components":["Napoles","Napoles (Ampl)"],"component_codes":["14-006","14-028"],"source_dataset":"georef-mexico-colonia","source_agency":"Instituto Electoral de la Ciudad de México (IECM), distributed via OpenDataSoft","source_year":2022,"grouping_note":"Composite neighborhood outline assembled by dissolving the listed component colonia polygons.","stroke":"#ffb703","stroke-width":2,"stroke-opacity":1,"fill":"#ffb703","fill-opacity":0.2},"bbox":[-99.183072,19.385217,-99.170498,19.399786]},{"type":"Feature","geometry":{"type":"Polygon","coordinates":[[[-99.181203,19.397102],[-99.180927,19.397144],[-99.180855,19.397159],[-99.180141,19.397313],[-99.179615,19.397436],[-99.179496,19.397492],[-99.179466,19.3975],[-99.179318,19.397536],[-99.179171,19.397572],[-99.178877,19.397645],[-99.178475,19.397739],[-99.178225,19.397796],[-99.178128,19.397818],[-99.177845,19.397883],[-99.177798,19.397893],[-99.176499,19.398149],[-99.176471,19.398157],[-99.176384,19.398238],[-99.176351,19.398329],[-99.176343,19.398423],[-99.176359,19.398481],[-99.176403,19.398553],[-99.176195,19.398463],[-99.176041,19.398394],[-99.175843,19.398321],[-99.175641,19.398243],[-99.175536,19.398227],[-99.175436,19.398224],[-99.175411,19.39823],[-99.175386,19.398237],[-99.175336,19.398249],[-99.175149,19.398324],[-99.175089,19.398342],[-99.174774,19.398437],[-99.174666,19.39847],[-99.170349,19.399825],[-99.170996,19.402695],[-99.171146,19.403372],[-99.171177,19.403512],[-99.171307,19.403554],[-99.17169,19.403678],[-99.172581,19.403964],[-99.173494,19.404258],[-99.174398,19.404549],[-99.177116,19.405441],[-99.177812,19.40568],[-99.178952,19.40608],[-99.180702,19.406688],[-99.18121,19.406864],[-99.182509,19.407311],[-99.184277,19.407919],[-99.184292,19.407739],[-99.184297,19.407678],[-99.184406,19.406375],[-99.18441,19.406329],[-99.184504,19.405197],[-99.184602,19.404034],[-99.184661,19.403328],[-99.184707,19.40268],[-99.184741,19.402214],[-99.184796,19.401449],[-99.184856,19.400609],[-99.184892,19.400116],[-99.184898,19.400023],[-99.184924,19.39987],[-99.184967,19.399632],[-99.185039,19.398594],[-99.185078,19.398022],[-99.185117,19.397689],[-99.185195,19.397035],[-99.185315,19.395956],[-99.185099,19.396022],[-99.184354,19.396144],[-99.184075,19.39619],[-99.183461,19.396427],[-99.182437,19.396796],[-99.182335,19.3969],[-99.18223,19.396919],[-99.18145,19.397056],[-99.181203,19.397102]]]},"properties":{"name":"Escandón","label":"Escandón","canonical_name":"Escandón","boroughs":["Miguel Hidalgo"],"components":["Escandon I","Escandon Ii","Escandon Iii"],"component_codes":["16-090","16-091","16-099"],"source_dataset":"georef-mexico-colonia","source_agency":"Instituto Electoral de la Ciudad de México (IECM), distributed via OpenDataSoft","source_year":2022,"grouping_note":"Composite neighborhood outline assembled by dissolving the listed component colonia polygons.","stroke":"#ffb703","stroke-width":2,"stroke-opacity":1,"fill":"#ffb703","fill-opacity":0.2},"bbox":[-99.185315,19.395956,-99.170349,19.407919]},{"type":"Feature","geometry":{"type":"Polygon","coordinates":[[[-99.164961,19.370661],[-99.163789,19.372493],[-99.163175,19.373449],[-99.162414,19.374631],[-99.161294,19.376374],[-99.16102,19.376801],[-99.160149,19.378129],[-99.159991,19.378371],[-99.159867,19.378441],[-99.159798,19.378517],[-99.159758,19.378602],[-99.159678,19.378773],[-99.159599,19.378948],[-99.159518,19.379142],[-99.159346,19.379598],[-99.159304,19.379673],[-99.159334,19.379868],[-99.159014,19.379673],[-99.158898,19.37958],[-99.158817,19.379486],[-99.158749,19.379342],[-99.158703,19.379335],[-99.158536,19.37931],[-99.158182,19.379256],[-99.157571,19.379164],[-99.156786,19.379046],[-99.156056,19.378968],[-99.155425,19.378886],[-99.1548,19.378793],[-99.154076,19.378691],[-99.153519,19.378612],[-99.153356,19.378588],[-99.153219,19.37942],[-99.153084,19.380217],[-99.152243,19.384401],[-99.147472,19.383997],[-99.147251,19.385844],[-99.147163,19.386645],[-99.147142,19.386889],[-99.147099,19.387204],[-99.14702,19.387896],[-99.146962,19.388323],[-99.146911,19.388713],[-99.14682,19.389402],[-99.146643,19.390809],[-99.146422,19.392564],[-99.146213,19.394158],[-99.146078,19.395192],[-99.14601,19.395714],[-99.145886,19.396632],[-99.1457,19.398086],[-99.145673,19.398286],[-99.145508,19.399677],[-99.145319,19.401123],[-99.145173,19.402246],[-99.145164,19.402311],[-99.145152,19.402409],[-99.145098,19.402856],[-99.14507,19.403082],[-99.145046,19.403324],[-99.145026,19.403497],[-99.145007,19.403702],[-99.144997,19.403809],[-99.14499,19.40388],[-99.145088,19.403883],[-99.145122,19.403885],[-99.147627,19.40402],[-99.149726,19.404039],[-99.150294,19.404044],[-99.150322,19.404044],[-99.150372,19.404045],[-99.150406,19.404045],[-99.152419,19.404067],[-99.155226,19.404057],[-99.155264,19.404056],[-99.155292,19.404056],[-99.155393,19.404056],[-99.155508,19.404056],[-99.155548,19.404055],[-99.155586,19.404055],[-99.156236,19.404053],[-99.156679,19.404027],[-99.157147,19.403945],[-99.157683,19.403786],[-99.159137,19.403354],[-99.159702,19.403192],[-99.160179,19.403049],[-99.160203,19.403043],[-99.160223,19.403037],[-99.160254,19.403027],[-99.160287,19.403017],[-99.160451,19.402969],[-99.160478,19.40296],[-99.1605,19.402954],[-99.161295,19.402717],[-99.162169,19.40244],[-99.162191,19.402433],[-99.162213,19.402426],[-99.162278,19.402405],[-99.162761,19.402236],[-99.163035,19.40214],[-99.165284,19.401315],[-99.167911,19.400398],[-99.170172,19.399867],[-99.170231,19.399853],[-99.17028,19.399841],[-99.170349,19.399825],[-99.170498,19.399786],[-99.170866,19.398383],[-99.171255,19.397231],[-99.171608,19.396091],[-99.172264,19.394012],[-99.172683,19.392708],[-99.172922,19.391954],[-99.173044,19.391572],[-99.173185,19.391158],[-99.173396,19.39059],[-99.17351,19.390266],[-99.173565,19.390128],[-99.173711,19.389655],[-99.17382,19.389301],[-99.17394,19.388898],[-99.17413,19.388407],[-99.174192,19.388207],[-99.174847,19.386119],[-99.177218,19.378847],[-99.177548,19.377865],[-99.177852,19.376958],[-99.17796,19.376636],[-99.178285,19.375666],[-99.178438,19.375154],[-99.178885,19.37369],[-99.178234,19.373548],[-99.177636,19.373417],[-99.177411,19.373368],[-99.177073,19.373294],[-99.176678,19.373207],[-99.17635,19.373136],[-99.176253,19.373115],[-99.175588,19.372969],[-99.164961,19.370661]]]},"properties":{"name":"Navarte","label":"Navarte","canonical_name":"Narvarte + Del Valle","boroughs":["Benito Juárez"],"components":["Atenor Salas","Del Valle I","Del Valle Ii","Del Valle Iii","Del Valle Iv","Del Valle V","Del Valle Vi","Del Valle Vii","Narvarte I","Narvarte Ii","Narvarte Iii","Narvarte Iv","Narvarte V","Narvarte Vi","Piedad Narvarte","Tlacoquemecatl Del Valle","Vertiz Narvarte"],"component_codes":["14-007","14-036","14-046","14-047","14-053","14-054","14-055","14-056","14-057","14-058","14-059","14-060","14-061","14-062","14-063","14-064","14-065"],"source_dataset":"georef-mexico-colonia","source_agency":"Instituto Electoral de la Ciudad de México (IECM), distributed via OpenDataSoft","source_year":2022,"grouping_note":"Composite neighborhood outline assembled by dissolving the listed component colonia polygons.","stroke":"#ffb703","stroke-width":2,"stroke-opacity":1,"fill":"#ffb703","fill-opacity":0.2},"bbox":[-99.178885,19.363181,-99.14499,19.404067]}]}
